STARLINK-2022           
1 47643U 21012Z   23274.77499313  .00014573  00000+0  99447-3 0  9996
2 47643  53.0531  86.5989 0001153  95.8139 264.2982 15.06427883146135
